NORAD_CAT_ID,OBJECT_NAME,OBJECT_TYPE,EPOCH,MEAN_MOTION,ECCENTRICITY,INCLINATION,RA_OF_ASC_NODE,ARG_OF_PERICENTER,MEAN_ANOMALY,BSTAR,MEAN_MOTION_DOT,MEAN_MOTION_DDOT,TLE_LINE0,TLE_LINE1,TLE_LINE2,SEMIMAJOR_AXIS,PERIOD,APOGEE,PERIGEE,DECAYED
56785.0,STARLINK-5931,PAYLOAD,2024-03-28 22:33:29,14.98328016,0.0002562,70.0006,336.6377,266.2165,93.8702,-9.3017e-05,-1.203e-05,0.0,0 STARLINK-5931,1 56785U 23078U   24088.93992830 -.00001203  00000-0 -93017-4 0  9998,2 56785  70.0006 336.6377 0002562 266.2165  93.8702 14.98328016 46904,6950.199,96.107,573.845,570.283,0.0
56785.0,STARLINK-5931,PAYLOAD,2024-03-29 01:45:45,14.98326669,0.0002457,70.0008,336.3011,260.5961,99.4921,-4.9506e-05,-6.83e-06,0.0,0 STARLINK-5931,1 56785U 23078U   24089.07344791 -.00000683  00000-0 -49506-4 0  9996,2 56785  70.0008 336.3011 0002457 260.5961  99.4921 14.98326669 46493,6950.203,96.107,573.776,570.361,0.0
56785.0,STARLINK-5931,PAYLOAD,2024-03-29 22:35:30,14.98324583,0.0002418,70.0006,334.1128,254.0774,106.0119,0.00015823,1.795e-05,0.0,0 STARLINK-5931,1 56785U 23078U   24089.94131994  .00001795  00000-0  15823-3 0  9998,2 56785  70.0006 334.1128 0002418 254.0774 106.0119 14.98324583 47053,6950.21,96.107,573.755,570.394,0.0
56785.0,STARLINK-5931,PAYLOAD,2024-03-30 01:47:46,14.9832604,0.0002427,70.0005,333.7762,256.293,103.7959,0.00013463,1.514e-05,0.0,0 STARLINK-5931,1 56785U 23078U   24090.07484012  .00001514  00000-0  13463-3 0  9993,2 56785  70.0005 333.7762 0002427 256.2930 103.7959 14.98326040 46649,6950.205,96.107,573.757,570.383,0.0
56785.0,STARLINK-5931,PAYLOAD,2024-03-30 09:48:26,14.98324146,0.000236,70.001,332.9312,257.8619,102.2276,6.5721e-05,6.91e-06,0.0,0 STARLINK-5931,1 56785U 23078U   24090.40864411  .00000691  00000-0  65721-4 0  9995,2 56785  70.0010 332.9312 0002360 257.8619 102.2276 14.98324146 47129,6950.211,96.107,573.716,570.436,0.0
56785.0,STARLINK-5931,PAYLOAD,2024-03-30 22:37:31,14.9832317,0.0002483,70.0007,331.5872,258.2303,101.8577,8.0542e-06,3e-08,0.0,0 STARLINK-5931,1 56785U 23078U   24090.94272824  .00000003  00000-0  80542-5 0  9991,2 56785  70.0007 331.5872 0002483 258.2303 101.8577 14.98323170 47206,6950.214,96.107,573.805,570.353,0.0
56785.0,STARLINK-5931,PAYLOAD,2024-03-31 01:49:47,14.98323859,0.0002207,70.001,331.2499,255.6908,104.4006,1.7172e-05,1.12e-06,0.0,0 STARLINK-5931,1 56785U 23078U   24091.07624812  .00000112  00000-0  17172-4 0  9993,2 56785  70.0010 331.2499 0002207 255.6908 104.4006 14.98323859 46791,6950.212,96.107,573.611,570.543,0.0
56785.0,STARLINK-5931,PAYLOAD,2024-03-31 09:50:27,14.98337312,0.0002613,69.9999,330.4102,259.4548,100.6317,0.00010233,1.128e-05,0.0,0 STARLINK-5931,1 56785U 23078U   24091.41003642  .00001128  00000-0  10233-3 0  9991,2 56785  69.9999 330.4102 0002613 259.4548 100.6317 14.98337312 46847,6950.17,96.107,573.851,570.219,0.0
56785.0,STARLINK-5931,PAYLOAD,2024-03-31 19:27:14,14.98352758,0.0002544,70.0019,329.3999,265.4135,94.6734,0.00019065,2.184e-05,0.0,0 STARLINK-5931,1 56785U 23078U   24091.81058016  .00002184  00000-0  19065-3 0  9995,2 56785  70.0019 329.3999 0002544 265.4135  94.6734 14.98352758 46909,6950.123,96.106,573.756,570.219,0.0
56785.0,STARLINK-5931,PAYLOAD,2024-03-31 22:39:29,14.9836086,0.0002507,69.9999,329.0623,259.1382,100.9495,0.00026649,3.091e-05,0.0,0 STARLINK-5931,1 56785U 23078U   24091.94409034  .00003091  00000-0  26649-3 0  9993,2 56785  69.9999 329.0623 0002507 259.1382 100.9495 14.98360860 47355,6950.097,96.105,573.705,570.22,0.0
56785.0,STARLINK-5931,PAYLOAD,2024-04-01 01:51:45,14.98362997,0.0002419,70.0001,328.7243,261.344,98.7445,0.00028256,3.283e-05,0.0,0 STARLINK-5931,1 56785U 23078U   24092.07760597  .00003283  00000-0  28256-3 0  9991,2 56785  70.0001 328.7243 0002419 261.3440  98.7445 14.98362997 46944,6950.091,96.105,573.637,570.275,0.0
56785.0,STARLINK-5931,PAYLOAD,2024-04-01 19:29:16,14.98318954,0.0003111,69.9979,326.8749,263.5502,96.5303,-5.0429e-05,-6.95e-06,0.0,0 STARLINK-5931,1 56785U 23078U   24092.81199800 -.00000695  00000-0 -50429-4 0  9990,2 56785  69.9979 326.8749 0003111 263.5502  96.5303 14.98318954 47054,6950.227,96.108,574.254,569.93,0.0
56785.0,STARLINK-5931,PAYLOAD,2024-04-02 08:18:21,14.98321622,0.0002906,69.999,325.5266,266.8293,93.2534,-0.00017551,-2.186e-05,0.0,0 STARLINK-5931,1 56785U 23078U   24093.34608318 -.00002186  00000-0 -17551-3 0  9993,2 56785  69.9990 325.5266 0002906 266.8293  93.2534 14.98321622 47563,6950.219,96.108,574.104,570.064,0.0
56785.0,STARLINK-5931,PAYLOAD,2024-04-02 19:31:17,14.98333352,0.0002727,69.9991,324.3489,264.0694,96.0155,-0.0003319,-4.051e-05,0.0,0 STARLINK-5931,1 56785U 23078U   24093.81340107 -.00004051  00000-0 -33190-3 0  9994,2 56785  69.9991 324.3489 0002727 264.0694  96.0155 14.98333352 47208,6950.183,96.107,573.943,570.152,0.0
56785.0,STARLINK-5931,PAYLOAD,2024-04-02 21:07:25,14.98332046,0.0002773,69.999,324.18,265.4255,94.6588,-0.000335,-4.088e-05,0.0,0 STARLINK-5931,1 56785U 23078U   24093.88016195 -.00004088  00000-0 -33500-3 0  9993,2 56785  69.9990 324.1800 0002773 265.4255  94.6588 14.98332046 47642,6950.187,96.107,573.979,570.124,0.0
56785.0,STARLINK-5931,PAYLOAD,2024-04-03 08:20:21,14.98338535,0.0002736,69.999,323.0022,265.2604,94.8242,-0.00026267,-3.226e-05,0.0,0 STARLINK-5931,1 56785U 23078U   24094.34747483 -.00003226  00000-0 -26267-3 0  9991,2 56785  69.9990 323.0022 0002736 265.2604  94.8242 14.98338535 47289,6950.166,96.106,573.933,570.13,0.0
56785.0,STARLINK-5931,PAYLOAD,2024-04-03 14:44:54,14.98315237,0.0002896,69.9988,322.3287,267.2006,92.8821,0.00017717,2.021e-05,0.0,0 STARLINK-5931,1 56785U 23078U   24094.61451820  .00002021  00000-0  17717-3 0  9998,2 56785  69.9988 322.3287 0002896 267.2006  92.8821 14.98315237 47753,6950.239,96.108,574.116,570.091,0.0
56785.0,STARLINK-5931,PAYLOAD,2024-04-03 21:09:26,14.98318143,0.0002887,69.9988,321.6555,266.6738,93.4091,0.00019434,2.226e-05,0.0,0 STARLINK-5931,1 56785U 23078U   24094.88155820  .00002226  00000-0  19434-3 0  9993,2 56785  69.9988 321.6555 0002887 266.6738  93.4091 14.98318143 47360,6950.23,96.108,574.101,570.088,0.0
56785.0,STARLINK-5931,PAYLOAD,2024-04-04 08:22:23,14.98321575,0.000288,69.9986,320.477,267.388,92.6949,0.00014941,1.69e-05,0.0,0 STARLINK-5931,1 56785U 23078U   24095.34888017  .00001690  00000-0  14941-3 0  9998,2 56785  69.9986 320.4770 0002880 267.3880  92.6949 14.98321575 47864,6950.219,96.108,574.086,570.082,0.0
56785.0,STARLINK-5931,PAYLOAD,2024-04-04 21:11:27,14.98324827,0.0002844,69.9987,319.1302,266.7791,93.3043,6.196e-05,6.46e-06,0.0,0 STARLINK-5931,1 56785U 23078U   24095.88296293  .00000646  00000-0  61960-4 0  9990,2 56785  69.9987 319.1302 0002844 266.7791  93.3043 14.98324827 47513,6950.209,96.107,574.051,570.097,0.0
56785.0,STARLINK-5931,PAYLOAD,2024-04-05 08:24:24,14.98329856,0.0002827,69.9986,317.9516,266.7883,93.2952,5.8143e-05,6.01e-06,0.0,0 STARLINK-5931,1 56785U 23078U   24096.35028036  .00000601  00000-0  58143-4 0  9991,2 56785  69.9986 317.9516 0002827 266.7883  93.2952 14.98329856 48019,6950.193,96.107,574.023,570.094,0.0
56785.0,STARLINK-5931,PAYLOAD,2024-04-05 21:13:28,14.9833602,0.0002849,69.9985,316.6051,267.4677,92.6156,3.9541e-05,3.79e-06,0.0,0 STARLINK-5931,1 56785U 23078U   24096.88435572  .00000379  00000-0  39541-4 0  9999,2 56785  69.9985 316.6051 0002849 267.4677  92.6156 14.98336020 47661,6950.174,96.107,574.019,570.059,0.0
56785.0,STARLINK-5931,PAYLOAD,2024-04-06 08:26:25,14.98331054,0.0002803,69.9986,315.4262,267.6179,92.4659,-2.9671e-06,-1.28e-06,0.0,0 STARLINK-5931,1 56785U 23078U   24097.35167837 -.00000128  00000-0 -29671-5 0  9996,2 56785  69.9986 315.4262 0002803 267.6179  92.4659 14.98331054 48166,6950.19,96.107,574.003,570.106,0.0
56785.0,STARLINK-5931,PAYLOAD,2024-04-06 21:15:29,14.98328157,0.0002756,69.9988,314.0796,266.9334,93.151,1.1755e-05,4.7e-07,0.0,0 STARLINK-5931,1 56785U 23078U   24097.88575960  .00000047  00000-0  11755-4 0  9995,2 56785  69.9988 314.0796 0002756 266.9334  93.1510 14.98328157 47812,6950.199,96.107,573.979,570.148,0.0
56785.0,STARLINK-5931,PAYLOAD,2024-04-06 22:51:37,14.9832793,0.0002834,69.9986,313.9115,268.0892,91.9942,-2.6875e-05,-4.14e-06,0.0,0 STARLINK-5931,1 56785U 23078U   24097.95252082 -.00000414  00000-0 -26875-4 0  9999,2 56785  69.9986 313.9115 0002834 268.0892  91.9942 14.98327930 48254,6950.199,96.107,574.034,570.095,0.0
56785.0,STARLINK-5931,PAYLOAD,2024-04-07 13:16:50,14.98332776,0.00028,69.9986,312.3965,268.7981,91.2857,-3.9842e-05,-5.68e-06,0.0,0 STARLINK-5931,1 56785U 23078U   24098.55335796 -.00000568  00000-0 -39842-4 0  9998,2 56785  69.9986 312.3965 0002800 268.7981  91.2857 14.98332776 48341,6950.184,96.107,573.995,570.103,0.0
56785.0,STARLINK-5931,PAYLOAD,2024-04-07 21:17:30,14.98335039,0.0002812,69.9986,311.5548,269.0902,90.9935,-2.1913e-05,-3.54e-06,0.0,0 STARLINK-5931,1 56785U 23078U   24098.88715517 -.00000354  00000-0 -21913-4 0  9990,2 56785  69.9986 311.5548 0002812 269.0902  90.9935 14.98335039 47964,6950.177,96.107,573.997,570.088,0.0
56785.0,STARLINK-5931,PAYLOAD,2024-04-07 22:53:38,14.98334472,0.0002816,69.9986,311.3865,269.2127,90.871,-2.7032e-05,-4.16e-06,0.0,0 STARLINK-5931,1 56785U 23078U   24098.95391552 -.00000416  00000-0 -27032-4 0  9994,2 56785  69.9986 311.3865 0002816 269.2127  90.8710 14.98334472 48409,6950.179,96.107,574.001,570.087,0.0
56785.0,STARLINK-5931,PAYLOAD,2024-04-08 13:18:50,14.98329452,0.0002837,69.9986,309.8714,270.7537,89.3297,4.3496e-05,4.26e-06,0.0,0 STARLINK-5931,1 56785U 23078U   24099.55475549  .00000426  00000-0  43496-4 0  9991,2 56785  69.9986 309.8714 0002837 270.7537  89.3297 14.98329452 48493,6950.195,96.107,574.031,570.088,0.0
56785.0,STARLINK-5931,PAYLOAD,2024-04-08 22:55:39,14.98331585,0.0002848,69.9985,308.8613,270.9712,89.112,4.0685e-05,3.92e-06,0.0,0 STARLINK-5931,1 56785U 23078U   24099.95531395  .00000392  00000-0  40685-4 0  9996,2 56785  69.9985 308.8613 0002848 270.9712  89.1120 14.98331585 48558,6950.188,96.107,574.032,570.074,0.0
